{
  "type": "FeatureCollection",
  "features": [
    {
      "type": "Feature",
      "properties": {
        "norad_id": 42989,
        "name": "SKYSAT-C9",
        "group": "resource",
        "lat": 68.83502371836512,
        "lon": -28.985390232865505,
        "alt_km": 447.46469374452863,
        "timestamp": "2025-12-26T23:26:41.811109+00:00",
        "meta_object_name": "SKYSAT-C9",
        "meta_object_id": "2017-068C",
        "meta_epoch": "2025-12-26T08:54:05.306400",
        "meta_mean_motion": 15.36395186,
        "meta_eccentricity": 0.00101854,
        "meta_inclination": 97.4193,
        "meta_ra_of_asc_node": 130.7353,
        "meta_arg_of_pericenter": 43.9303,
        "meta_mean_anomaly": 316.2749,
        "meta_ephemeris_type": 0,
        "meta_classification_type": "U",
        "meta_norad_cat_id": 42989,
        "meta_element_set_no": 999,
        "meta_rev_at_epoch": 45617,
        "meta_bstar": 0.00038181732,
        "meta_mean_motion_dot": 0.00013502,
        "meta_mean_motion_ddot": 0,
        "tle_line1": "1 42989U 17068C   25360.37089475  .00013502  00000+0  38182-3 0  9998",
        "tle_line2": "2 42989  97.4193 130.7353 0010185  43.9303 316.2749 15.36395186456178"
      },
      "geometry": {
        "type": "Point",
        "coordinates": [
          -28.985390232865505,
          68.83502371836512
        ]
      }
    },
    {
      "type": "Feature",
      "properties": {
        "norad_id": 42990,
        "name": "SKYSAT-C8",
        "group": "resource",
        "lat": -78.17641687671195,
        "lon": 169.59829675308416,
        "alt_km": 472.9176722666816,
        "timestamp": "2025-12-26T23:26:41.811118+00:00",
        "meta_object_name": "SKYSAT-C8",
        "meta_object_id": "2017-068D",
        "meta_epoch": "2025-12-26T14:23:55.826880",
        "meta_mean_motion": 15.33228179,
        "meta_eccentricity": 9.515e-05,
        "meta_inclination": 97.4287,
        "meta_ra_of_asc_node": 130.6632,
        "meta_arg_of_pericenter": 257.2238,
        "meta_mean_anomaly": 102.8898,
        "meta_ephemeris_type": 0,
        "meta_classification_type": "U",
        "meta_norad_cat_id": 42990,
        "meta_element_set_no": 999,
        "meta_rev_at_epoch": 45583,
        "meta_bstar": 0.0003895194,
        "meta_mean_motion_dot": 0.00012433,
        "meta_mean_motion_ddot": 0,
        "tle_line1": "1 42990U 17068D   25360.59995170  .00012433  00000+0  38952-3 0  9999",
        "tle_line2": "2 42990  97.4287 130.6632 0000951 257.2238 102.8898 15.33228179455830"
      },
      "geometry": {
        "type": "Point",
        "coordinates": [
          169.59829675308416,
          -78.17641687671195
        ]
      }
    },
    {
      "type": "Feature",
      "properties": {
        "norad_id": 42991,
        "name": "SKYSAT-C7",
        "group": "resource",
        "lat": 74.15109379235844,
        "lon": -20.563109825274264,
        "alt_km": 461.1394135256769,
        "timestamp": "2025-12-26T23:26:41.811127+00:00",
        "meta_object_name": "SKYSAT-C7",
        "meta_object_id": "2017-068E",
        "meta_epoch": "2025-12-26T08:53:26.128320",
        "meta_mean_motion": 15.32615619,
        "meta_eccentricity": 0.00067856,
        "meta_inclination": 97.4296,
        "meta_ra_of_asc_node": 131.4629,
        "meta_arg_of_pericenter": 13.3039,
        "meta_mean_anomaly": 346.838,
        "meta_ephemeris_type": 0,
        "meta_classification_type": "U",
        "meta_norad_cat_id": 42991,
        "meta_element_set_no": 999,
        "meta_rev_at_epoch": 45586,
        "meta_bstar": 0.00036174908,
        "meta_mean_motion_dot": 0.00011327,
        "meta_mean_motion_ddot": 0,
        "tle_line1": "1 42991U 17068E   25360.37044130  .00011327  00000+0  36175-3 0  9993",
        "tle_line2": "2 42991  97.4296 131.4629 0006785  13.3039 346.8380 15.32615619455864"
      },
      "geometry": {
        "type": "Point",
        "coordinates": [
          -20.563109825274264,
          74.15109379235844
        ]
      }
    },
    {
      "type": "Feature",
      "properties": {
        "norad_id": 42992,
        "name": "SKYSAT-C6",
        "group": "resource",
        "lat": 2.037444400470836,
        "lon": -47.235510236317516,
        "alt_km": 475.6258551255778,
        "timestamp": "2025-12-26T23:26:41.811136+00:00",
        "meta_object_name": "SKYSAT-C6",
        "meta_object_id": "2017-068F",
        "meta_epoch": "2025-12-25T20:01:06.090528",
        "meta_mean_motion": 15.31757076,
        "meta_eccentricity": 0.00047376,
        "meta_inclination": 97.4326,
        "meta_ra_of_asc_node": 131.3522,
        "meta_arg_of_pericenter": 46.8398,
        "meta_mean_anomaly": 313.3239,
        "meta_ephemeris_type": 0,
        "meta_classification_type": "U",
        "meta_norad_cat_id": 42992,
        "meta_element_set_no": 999,
        "meta_rev_at_epoch": 45576,
        "meta_bstar": 0.00037471515,
        "meta_mean_motion_dot": 0.0001142,
        "meta_mean_motion_ddot": 0,
        "tle_line1": "1 42992U 17068F   25359.83409827  .00011420  00000+0  37472-3 0  9996",
        "tle_line2": "2 42992  97.4326 131.3522 0004737  46.8398 313.3239 15.31757076455768"
      },
      "geometry": {
        "type": "Point",
        "coordinates": [
          -47.235510236317516,
          2.037444400470836
        ]
      }
    },
    {
      "type": "Feature",
      "properties": {
        "norad_id": 43111,
        "name": "CARTOSAT-2F",
        "group": "resource",
        "lat": 10.446024372836236,
        "lon": 57.004294083328766,
        "alt_km": 509.78272099245714,
        "timestamp": "2025-12-26T23:26:41.811145+00:00",
        "meta_object_name": "CARTOSAT-2F",
        "meta_object_id": "2018-004A",
        "meta_epoch": "2025-12-26T15:29:42.401760",
        "meta_mean_motion": 15.19263763,
        "meta_eccentricity": 0.00015183,
        "meta_inclination": 97.4292,
        "meta_ra_of_asc_node": 58.057,
        "meta_arg_of_pericenter": 107.7284,
        "meta_mean_anomaly": 252.4116,
        "meta_ephemeris_type": 0,
        "meta_classification_type": "U",
        "meta_norad_cat_id": 43111,
        "meta_element_set_no": 999,
        "meta_rev_at_epoch": 44113,
        "meta_bstar": 0.00040310686,
        "meta_mean_motion_dot": 8.435e-05,
        "meta_mean_motion_ddot": 0,
        "tle_line1": "1 43111U 18004A   25360.64562965  .00008435  00000+0  40311-3 0  9993",
        "tle_line2": "2 43111  97.4292  58.0570 0001518 107.7284 252.4116 15.19263763441131"
      },
      "geometry": {
        "type": "Point",
        "coordinates": [
          57.004294083328766,
          10.446024372836236
        ]
      }
    },
    {
      "type": "Feature",
      "properties": {
        "norad_id": 43259,
        "name": "GAOFEN-1 02",
        "group": "resource",
        "lat": 71.91386641936975,
        "lon": -95.45172895838694,
        "alt_km": 632.6862253190293,
        "timestamp": "2025-12-26T23:26:41.811153+00:00",
        "meta_object_name": "GAOFEN-1 02",
        "meta_object_id": "2018-031A",
        "meta_epoch": "2025-12-26T18:05:09.764736",
        "meta_mean_motion": 14.7644479,
        "meta_eccentricity": 0.0002688,
        "meta_inclination": 98.0783,
        "meta_ra_of_asc_node": 58.5462,
        "meta_arg_of_pericenter": 166.7224,
        "meta_mean_anomaly": 193.4056,
        "meta_ephemeris_type": 0,
        "meta_classification_type": "U",
        "meta_norad_cat_id": 43259,
        "meta_element_set_no": 999,
        "meta_rev_at_epoch": 41725,
        "meta_bstar": 0.00017935,
        "meta_mean_motion_dot": 1.196e-05,
        "meta_mean_motion_ddot": 0,
        "tle_line1": "1 43259U 18031A   25360.75358524  .00001196  00000+0  17935-3 0  9995",
        "tle_line2": "2 43259  98.0783  58.5462 0002688 166.7224 193.4056 14.76444790417255"
      },
      "geometry": {
        "type": "Point",
        "coordinates": [
          -95.45172895838694,
          71.91386641936975
        ]
      }
    },
    {
      "type": "Feature",
      "properties": {
        "norad_id": 43260,
        "name": "GAOFEN-1 03",
        "group": "resource",
        "lat": -41.92703509973224,
        "lon": -128.68233493147017,
        "alt_km": 646.2089852596027,
        "timestamp": "2025-12-26T23:26:41.811162+00:00",
        "meta_object_name": "GAOFEN-1 03",
        "meta_object_id": "2018-031B",
        "meta_epoch": "2025-12-26T17:33:40.254624",
        "meta_mean_motion": 14.76427295,
        "meta_eccentricity": 0.0001656,
        "meta_inclination": 98.0779,
        "meta_ra_of_asc_node": 58.4006,
        "meta_arg_of_pericenter": 251.117,
        "meta_mean_anomaly": 108.986,
        "meta_ephemeris_type": 0,
        "meta_classification_type": "U",
        "meta_norad_cat_id": 43260,
        "meta_element_set_no": 999,
        "meta_rev_at_epoch": 41724,
        "meta_bstar": 0.00016811,
        "meta_mean_motion_dot": 1.117e-05,
        "meta_mean_motion_ddot": 0,
        "tle_line1": "1 43260U 18031B   25360.73171591  .00001117  00000+0  16811-3 0  9997",
        "tle_line2": "2 43260  98.0779  58.4006 0001656 251.1170 108.9860 14.76427295417242"
      },
      "geometry": {
        "type": "Point",
        "coordinates": [
          -128.68233493147017,
          -41.92703509973224
        ]
      }
    }
  ]
}